SENTINEL-2A             
1 40697U 15028A   26195.20770199 -.00000172  00000+0 -48805-4 0  9990
2 40697  98.5685 269.6745 0001265  96.1666 263.9661 14.30813513577591
SENTINEL-2B             
1 42063U 17013A   26195.20051345 -.00000129  00000+0 -32484-4 0  9998
2 42063  98.5693 269.5925 0001201  91.8726 268.2594 14.30814336488506
SENTINEL-2C             
1 60989U 24157A   26195.16556389  .00000043  00000+0  33236-4 0  9994
2 60989  98.5685 269.5647 0000956 102.6163 257.5127 14.30815481 96844
