{"fetched_at":"2026-07-14T17:41:04.817Z","source":"https://celestrak.org/NORAD/elements/gp.php?NAME=SENTINEL&FORMAT=JSON","constellation":"sentinel-2","records":[{"OBJECT_NAME":"SENTINEL-2A","OBJECT_ID":"2015-028A","EPOCH":"2026-07-14T04:59:05.451936","CLASSIFICATION_TYPE":"U","MEAN_MOTION":14.30813513,"ECCENTRICITY":0.0001265,"INCLINATION":98.5685,"RA_OF_ASC_NODE":269.6745,"ARG_OF_PERICENTER":96.1666,"MEAN_ANOMALY":263.9661,"EPHEMERIS_TYPE":0,"NORAD_CAT_ID":40697,"ELEMENT_SET_NO":999,"REV_AT_EPOCH":57759,"BSTAR":-0.000048805,"MEAN_MOTION_DOT":-0.00000172,"MEAN_MOTION_DDOT":0},{"OBJECT_NAME":"SENTINEL-2B","OBJECT_ID":"2017-013A","EPOCH":"2026-07-14T04:48:44.362080","CLASSIFICATION_TYPE":"U","MEAN_MOTION":14.30814336,"ECCENTRICITY":0.0001201,"INCLINATION":98.5693,"RA_OF_ASC_NODE":269.5925,"ARG_OF_PERICENTER":91.8726,"MEAN_ANOMALY":268.2594,"EPHEMERIS_TYPE":0,"NORAD_CAT_ID":42063,"ELEMENT_SET_NO":999,"REV_AT_EPOCH":48850,"BSTAR":-0.000032484,"MEAN_MOTION_DOT":-0.00000129,"MEAN_MOTION_DDOT":0},{"OBJECT_NAME":"SENTINEL-2C","OBJECT_ID":"2024-157A","EPOCH":"2026-07-14T03:58:24.720096","CLASSIFICATION_TYPE":"U","MEAN_MOTION":14.30815481,"ECCENTRICITY":0.0000956,"INCLINATION":98.5685,"RA_OF_ASC_NODE":269.5647,"ARG_OF_PERICENTER":102.6163,"MEAN_ANOMALY":257.5127,"EPHEMERIS_TYPE":0,"NORAD_CAT_ID":60989,"ELEMENT_SET_NO":999,"REV_AT_EPOCH":9684,"BSTAR":0.000033236,"MEAN_MOTION_DOT":4.3e-7,"MEAN_MOTION_DDOT":0}]}
